{
  "type": "FeatureCollection",
  "features": [
    {
      "type": "Feature",
      "properties": {
        "norad_id": 66877,
        "name": "ZQ-3 R/B",
        "group": "last-30-days",
        "lat": -34.029792606804214,
        "lon": -149.48242128861622,
        "alt_km": 177.308485084759,
        "timestamp": "2025-12-26T08:37:53.292380+00:00",
        "meta_object_name": "ZQ-3 R/B",
        "meta_object_id": "2025-282A",
        "meta_epoch": "2025-12-26T02:45:15.048864",
        "meta_mean_motion": 14.86848373,
        "meta_eccentricity": 0.0666093,
        "meta_inclination": 56.9489,
        "meta_ra_of_asc_node": 5.4107,
        "meta_arg_of_pericenter": 243.63,
        "meta_mean_anomaly": 109.489,
        "meta_ephemeris_type": 0,
        "meta_classification_type": "U",
        "meta_norad_cat_id": 66877,
        "meta_element_set_no": 999,
        "meta_rev_at_epoch": 336,
        "meta_bstar": 0.00016687,
        "meta_mean_motion_dot": 0.01006455,
        "meta_mean_motion_ddot": 7.9684e-06,
        "tle_line1": "1 66877U 25282A   25360.11475751  .01006455  79684-5  16687-3 0  9991",
        "tle_line2": "2 66877  56.9489   5.4107 0666093 243.6300 109.4890 14.86848373  3367"
      },
      "geometry": {
        "type": "Point",
        "coordinates": [
          -149.48242128861622,
          -34.029792606804214
        ]
      }
    },
    {
      "type": "Feature",
      "properties": {
        "norad_id": 66878,
        "name": "STARLINK-35866",
        "group": "last-30-days",
        "lat": -3.470428544976452,
        "lon": -171.31668179471177,
        "alt_km": 397.99364816757134,
        "timestamp": "2025-12-26T08:37:53.292391+00:00",
        "meta_object_name": "STARLINK-35866",
        "meta_object_id": "2025-283A",
        "meta_epoch": "2025-12-26T04:00:01.998720",
        "meta_mean_motion": 15.57839662,
        "meta_eccentricity": 0.0001608,
        "meta_inclination": 53.1598,
        "meta_ra_of_asc_node": 7.0115,
        "meta_arg_of_pericenter": 81.8179,
        "meta_mean_anomaly": 99.951,
        "meta_ephemeris_type": 0,
        "meta_classification_type": "U",
        "meta_norad_cat_id": 66878,
        "meta_element_set_no": 999,
        "meta_rev_at_epoch": 458,
        "meta_bstar": -0.030136,
        "meta_mean_motion_dot": -0.02004786,
        "meta_mean_motion_ddot": 0,
        "tle_line1": "1 66878U 25283A   25360.16668980 -.02004786  00000+0 -30136-1 0  9997",
        "tle_line2": "2 66878  53.1598   7.0115 0001608  81.8179  99.9510 15.57839662  4583"
      },
      "geometry": {
        "type": "Point",
        "coordinates": [
          -171.31668179471177,
          -3.470428544976452
        ]
      }
    },
    {
      "type": "Feature",
      "properties": {
        "norad_id": 66879,
        "name": "STARLINK-35749",
        "group": "last-30-days",
        "lat": -6.529609683151809,
        "lon": -169.00852177203717,
        "alt_km": 398.3864573079791,
        "timestamp": "2025-12-26T08:37:53.292402+00:00",
        "meta_object_name": "STARLINK-35749",
        "meta_object_id": "2025-283B",
        "meta_epoch": "2025-12-26T04:00:01.998720",
        "meta_mean_motion": 15.57843628,
        "meta_eccentricity": 0.0001586,
        "meta_inclination": 53.1596,
        "meta_ra_of_asc_node": 7.0028,
        "meta_arg_of_pericenter": 83.9453,
        "meta_mean_anomaly": 101.6539,
        "meta_ephemeris_type": 0,
        "meta_classification_type": "U",
        "meta_norad_cat_id": 66879,
        "meta_element_set_no": 999,
        "meta_rev_at_epoch": 458,
        "meta_bstar": -0.030183,
        "meta_mean_motion_dot": -0.02007741,
        "meta_mean_motion_ddot": 0,
        "tle_line1": "1 66879U 25283B   25360.16668980 -.02007741  00000+0 -30183-1 0  9994",
        "tle_line2": "2 66879  53.1596   7.0028 0001586  83.9453 101.6539 15.57843628  4587"
      },
      "geometry": {
        "type": "Point",
        "coordinates": [
          -169.00852177203717,
          -6.529609683151809
        ]
      }
    },
    {
      "type": "Feature",
      "properties": {
        "norad_id": 66880,
        "name": "STARLINK-35844",
        "group": "last-30-days",
        "lat": -5.0015709519086515,
        "lon": -170.16426953014275,
        "alt_km": 398.2077647669357,
        "timestamp": "2025-12-26T08:37:53.292412+00:00",
        "meta_object_name": "STARLINK-35844",
        "meta_object_id": "2025-283C",
        "meta_epoch": "2025-12-26T04:00:01.998720",
        "meta_mean_motion": 15.57842163,
        "meta_eccentricity": 0.0001601,
        "meta_inclination": 53.1598,
        "meta_ra_of_asc_node": 7.0078,
        "meta_arg_of_pericenter": 82.0726,
        "meta_mean_anomaly": 101.6119,
        "meta_ephemeris_type": 0,
        "meta_classification_type": "U",
        "meta_norad_cat_id": 66880,
        "meta_element_set_no": 999,
        "meta_rev_at_epoch": 458,
        "meta_bstar": -0.030179,
        "meta_mean_motion_dot": -0.02007442,
        "meta_mean_motion_ddot": 0,
        "tle_line1": "1 66880U 25283C   25360.16668980 -.02007442  00000+0 -30179-1 0  9999",
        "tle_line2": "2 66880  53.1598   7.0078 0001601  82.0726 101.6119 15.57842163  4584"
      },
      "geometry": {
        "type": "Point",
        "coordinates": [
          -170.16426953014275,
          -5.0015709519086515
        ]
      }
    },
    {
      "type": "Feature",
      "properties": {
        "norad_id": 66881,
        "name": "STARLINK-35860",
        "group": "last-30-days",
        "lat": -8.056550062648391,
        "lon": -167.84352306656805,
        "alt_km": 398.64040776591446,
        "timestamp": "2025-12-26T08:37:53.292422+00:00",
        "meta_object_name": "STARLINK-35860",
        "meta_object_id": "2025-283D",
        "meta_epoch": "2025-12-26T04:00:01.998720",
        "meta_mean_motion": 15.57845921,
        "meta_eccentricity": 0.0001613,
        "meta_inclination": 53.1598,
        "meta_ra_of_asc_node": 6.9988,
        "meta_arg_of_pericenter": 81.7554,
        "meta_mean_anomaly": 105.7605,
        "meta_ephemeris_type": 0,
        "meta_classification_type": "U",
        "meta_norad_cat_id": 66881,
        "meta_element_set_no": 999,
        "meta_rev_at_epoch": 458,
        "meta_bstar": -0.030252,
        "meta_mean_motion_dot": -0.0201196,
        "meta_mean_motion_ddot": 0,
        "tle_line1": "1 66881U 25283D   25360.16668980 -.02011960  00000+0 -30252-1 0  9992",
        "tle_line2": "2 66881  53.1598   6.9988 0001613  81.7554 105.7605 15.57845921  4581"
      },
      "geometry": {
        "type": "Point",
        "coordinates": [
          -167.84352306656805,
          -8.056550062648391
        ]
      }
    },
    {
      "type": "Feature",
      "properties": {
        "norad_id": 66882,
        "name": "STARLINK-35912",
        "group": "last-30-days",
        "lat": -9.578569284225486,
        "lon": -166.669899676823,
        "alt_km": 398.8517168894641,
        "timestamp": "2025-12-26T08:37:53.292431+00:00",
        "meta_object_name": "STARLINK-35912",
        "meta_object_id": "2025-283E",
        "meta_epoch": "2025-12-26T04:00:01.998720",
        "meta_mean_motion": 15.57841533,
        "meta_eccentricity": 0.0001619,
        "meta_inclination": 53.1599,
        "meta_ra_of_asc_node": 6.9958,
        "meta_arg_of_pericenter": 81.7624,
        "meta_mean_anomaly": 107.6713,
        "meta_ephemeris_type": 0,
        "meta_classification_type": "U",
        "meta_norad_cat_id": 66882,
        "meta_element_set_no": 999,
        "meta_rev_at_epoch": 458,
        "meta_bstar": -0.030151,
        "meta_mean_motion_dot": -0.02005765,
        "meta_mean_motion_ddot": 0,
        "tle_line1": "1 66882U 25283E   25360.16668980 -.02005765  00000+0 -30151-1 0  9997",
        "tle_line2": "2 66882  53.1599   6.9958 0001619  81.7624 107.6713 15.57841533  4580"
      },
      "geometry": {
        "type": "Point",
        "coordinates": [
          -166.669899676823,
          -9.578569284225486
        ]
      }
    },
    {
      "type": "Feature",
      "properties": {
        "norad_id": 66883,
        "name": "STARLINK-35947",
        "group": "last-30-days",
        "lat": -11.097174583372986,
        "lon": -165.48606550348848,
        "alt_km": 399.0175147201144,
        "timestamp": "2025-12-26T08:37:53.292443+00:00",
        "meta_object_name": "STARLINK-35947",
        "meta_object_id": "2025-283F",
        "meta_epoch": "2025-12-26T04:00:01.998720",
        "meta_mean_motion": 15.57834738,
        "meta_eccentricity": 0.0001564,
        "meta_inclination": 53.1601,
        "meta_ra_of_asc_node": 6.992,
        "meta_arg_of_pericenter": 83.4197,
        "meta_mean_anomaly": 107.9343,
        "meta_ephemeris_type": 0,
        "meta_classification_type": "U",
        "meta_norad_cat_id": 66883,
        "meta_element_set_no": 999,
        "meta_rev_at_epoch": 463,
        "meta_bstar": -0.029999,
        "meta_mean_motion_dot": -0.01996444,
        "meta_mean_motion_ddot": 0,
        "tle_line1": "1 66883U 25283F   25360.16668980 -.01996444  00000+0 -29999-1 0  9998",
        "tle_line2": "2 66883  53.1601   6.9920 0001564  83.4197 107.9343 15.57834738  4634"
      },
      "geometry": {
        "type": "Point",
        "coordinates": [
          -165.48606550348848,
          -11.097174583372986
        ]
      }
    }
  ]
}